ONEWEB-0020             
1 45133U 20008C   23274.83426684 -.00000646  00000+0 -18865-2 0  9992
2 45133  87.8861 232.7232 0001817  75.6823 284.4506 13.10372606178773
ONEWEB-0021             
1 45134U 20008D   23274.84888806 -.00000504  00000+0 -14812-2 0  9993
2 45134  87.8870 232.7241 0002154  77.6822 282.4547 13.10370433179084
ONEWEB-0023             
1 45136U 20008F   23274.86188446  .00000118  00000+0  30116-3 0  9995
2 45136  87.8869 232.7145 0001728  95.9330 264.1994 13.10376430178513
ONEWEB-0024             
1 45137U 20008G   23274.90900732 -.00000528  00000+0 -15489-2 0  9993
2 45137  87.8775 232.7303 0002158  76.3649 283.7718 13.10365682178686
ONEWEB-0025             
1 45138U 20008H   23274.85050955 -.00000281  00000+0 -84017-3 0  9991
2 45138  87.8872 232.7253 0002362  83.9484 276.1913 13.10368927179002
ONEWEB-0026             
1 45139U 20008J   23274.89361290 -.00114347  00000+0 -32802+0 0  9993
2 45139  87.8990 217.5694 0001961  64.8305 295.3026 13.11134558181449
ONEWEB-0028             
1 45140U 20008K   23274.84953810 -.00000363  00000+0 -10577-2 0  9995
2 45140  87.8968 217.6294 0002504  87.9071 272.2343 13.11629961178958
